OBJECT_NAME,OBJECT_ID,EPOCH,MEAN_MOTION,ECCENTRICITY,INCLINATION,RA_OF_ASC_NODE,ARG_OF_PERICENTER,MEAN_ANOMALY,EPHEMERIS_TYPE,CLASSIFICATION_TYPE,NORAD_CAT_ID,ELEMENT_SET_NO,REV_AT_EPOCH,BSTAR,MEAN_MOTION_DOT,MEAN_MOTION_DDOT
JILIN-1 GAOFEN 03D49,2022-167N,2026-05-30T04:04:57.492768,15.36930318,.0005589,97.6788,319.4832,187.4925,172.6236,0,U,54694,999,19272,.46318E-3,.16665E-3,0
JILIN-1 GAOFEN 03D48,2022-167P,2026-05-30T04:59:02.179104,15.34790580,.0006811,97.6860,318.9636,170.5387,189.5985,0,U,54695,999,19263,.47548E-3,.15979E-3,0
SHIYAN-20A (SY-20A),2022-169A,2026-05-30T04:31:52.306176,14.29521310,.0009464,59.9975,299.9278,162.1093,198.0277,0,U,54699,999,18078,.73211E-4,.51E-6,0
SHIYAN-20B (SY-20B),2022-169B,2026-05-30T04:37:40.715904,14.29534964,.0012823,59.9976,299.9815,186.9775,173.1084,0,U,54700,999,18078,.85416E-4,.83E-6,0
GALAXY 35 (G-35),2022-170A,2026-05-30T03:09:38.471328,1.00272089,.0002334,0.0187,290.5865,141.4622,129.9136,0,U,54741,999,1271,0,-.15E-5,0
GALAXY 36 (G-36),2022-170B,2026-05-30T03:09:38.471328,1.00271964,.000291,0.0094,62.3952,13.3236,130.3464,0,U,54742,999,1259,0,-.173E-5,0
METEOSAT-12 (MTG-I1),2022-170C,2026-05-30T03:31:01.411968,1.00270641,.0003544,0.7195,20.0080,66.6045,213.4042,0,U,54743,999,1279,0,.3E-7,0
YAOGAN-36 04A,2022-171A,2026-05-29T20:46:40.793952,15.20752853,.00064731,34.9914,336.3025,128.3222,231.8074,0,U,54746,999,19233,.41050014E-3,.9234E-4,0
YAOGAN-36 04B,2022-171C,2026-05-29T19:14:03.914016,15.22958280,.00023854,35.0047,310.5608,29.5675,330.5174,0,U,54748,999,19258,.58908762E-3,.14164E-3,0
YAOGAN-36 04C,2022-171E,2026-05-29T18:40:16.996800,15.31995260,.00065365,34.9821,300.9457,321.3248,38.7001,0,U,54750,999,19266,.59590271E-3,.18912E-3,0
SHIYAN-21 (SY-21),2022-172A,2026-05-30T04:58:37.163712,15.28541337,.0019101,35.9793,184.2889,92.6099,267.6822,0,U,54752,999,19293,.30998E-3,.8806E-4,0
SWOT,2022-173A,2026-05-30T02:59:32.970624,14.00172275,.000016,77.6115,59.6927,97.9053,262.2117,0,U,54754,999,17662,.57606E-4,.82E-6,0
O3B MPOWER F1,2022-174A,2026-05-29T15:59:13.936128,5.00115929,.00062542,0.0548,343.7932,99.1123,119.8389,0,U,54755,999,6443,0,-.22E-6,0
O3B MPOWER F2,2022-174B,2026-05-29T22:04:55.890048,5.00115236,.0005923,0.0508,342.3397,82.7288,294.9941,0,U,54756,999,6453,0,-.22E-6,0
STARLINK-5464,2022-175A,2026-05-30T01:54:36.504288,15.08840346,.0001206,53.2025,33.9334,67.1681,292.9438,0,U,54758,999,19227,.76904E-4,.936E-5,0
STARLINK-5215,2022-175B,2026-05-28T22:58:21.842400,15.08841740,.00013263,53.2022,39.0087,81.3397,278.7745,0,U,54759,999,19210,.43653946E-4,.407E-5,0
STARLINK-5220,2022-175C,2026-05-30T01:56:38.134752,15.08824800,.000139,53.2000,38.9251,78.7971,281.3178,0,U,54760,999,19220,-.86161E-4,-.1658E-4,0
STARLINK-5202,2022-175D,2026-05-30T02:01:54.725952,15.08846203,.0000961,53.1998,38.9431,122.5460,237.5625,0,U,54761,999,19220,-.13968E-3,-.2511E-4,0
STARLINK-5214,2022-175E,2026-05-30T01:40:41.419776,15.08838681,.0001266,53.1989,38.8547,87.8701,272.2436,0,U,54762,999,19220,.92565E-4,.1186E-4,0
STARLINK-5191,2022-175F,2026-05-30T00:15:54.916992,15.08838488,.0001329,53.1986,39.1951,91.1322,268.9822,0,U,54763,999,19219,.33251E-4,.241E-5,0
STARLINK-5458,2022-175G,2026-05-30T01:20:49.627680,15.08844294,.000067,53.1983,38.7656,89.2052,270.9016,0,U,54764,999,19220,.62959E-4,.715E-5,0
STARLINK-5471,2022-175J,2026-05-30T01:30:05.006880,15.08819349,.0001325,53.1981,38.8086,95.3178,264.7965,0,U,54766,999,19220,.24466E-3,.3606E-4,0
STARLINK-5472,2022-175K,2026-05-29T07:55:31.727712,15.08846980,.00016725,53.1999,42.0524,66.6292,293.4875,0,U,54767,999,19209,-.22328907E-3,-.3841E-4,0
STARLINK-5444,2022-175L,2026-05-30T03:53:56.405760,15.08835246,.0001158,53.1962,23.7509,91.6281,268.4844,0,U,54768,999,19242,-.35885E-4,-.859E-5,0
STARLINK-5448,2022-175N,2026-05-29T16:18:19.993248,15.08832962,.00015251,53.1993,25.7214,74.4309,285.6851,0,U,54770,999,19235,.21177803E-4,.49E-6,0
STARLINK-5451,2022-175P,2026-05-30T01:01:33.629376,15.08834236,.0001537,53.1995,33.7047,94.1706,265.9462,0,U,54771,999,19227,.51321E-4,.529E-5,0
STARLINK-5452,2022-175Q,2026-05-30T01:45:20.217888,15.08834891,.0001333,53.1980,23.9117,76.3405,283.7735,0,U,54772,999,19241,.28935E-4,.173E-5,0
STARLINK-5453,2022-175R,2026-05-30T02:49:32.608992,15.08842656,.0002376,53.1983,38.4436,93.0061,267.1203,0,U,54773,999,19221,-.73286E-4,-.1455E-4,0
STARLINK-5454,2022-175S,2026-05-30T00:41:39.864768,15.08844400,.0001517,53.1979,23.6449,111.4557,248.6597,0,U,54774,999,19241,-.48585E-4,-.1061E-4,0
STARLINK-5465,2022-175T,2026-05-30T02:44:14.125632,15.08842621,.0001195,53.1980,38.4214,80.6896,279.4231,0,U,54775,999,19221,-.11179E-3,-.2067E-4,0
STARLINK-5470,2022-175U,2026-05-28T23:10:50.652192,15.08838705,.00013214,53.2028,43.3464,71.0936,289.0199,0,U,54776,999,19204,.55854498E-4,.601E-5,0
STARLINK-5468,2022-175V,2026-05-30T02:38:54.188160,15.08851998,.000193,53.1996,38.4028,61.9798,298.1389,0,U,54777,999,19221,.13183E-3,.1811E-4,0
STARLINK-5450,2022-175W,2026-05-29T19:13:10.920576,15.08834825,.0001148,53.1973,25.0556,101.5495,258.5626,0,U,54778,999,19237,.5775E-4,.631E-5,0
STARLINK-5447,2022-175X,2026-05-30T01:40:01.708608,15.08837596,.000141,53.1985,23.8876,87.4466,272.6687,0,U,54779,999,19241,.92967E-5,-.14E-5,0
STARLINK-5449,2022-175Y,2026-05-30T01:13:29.798112,15.08840476,.0001403,53.2014,23.7687,89.2547,270.8606,0,U,54780,999,19241,.37501E-4,.309E-5,0
STARLINK-5443,2022-175Z,2026-05-30T01:29:24.734112,15.08842648,.0001299,53.1990,23.8352,93.9506,266.1634,0,U,54781,999,19241,-.30211E-4,-.769E-5,0
STARLINK-5439,2022-175AB,2026-05-30T01:24:06.350112,15.08841267,.000133,53.1981,23.8194,84.6530,275.4613,0,U,54783,999,19241,.34205E-4,.256E-5,0
STARLINK-5442,2022-175AC,2026-05-30T02:33:37.067328,15.08839222,.0001032,53.1977,38.3765,84.0890,276.0219,0,U,54784,999,19221,.61094E-4,.685E-5,0
STARLINK-5440,2022-175AD,2026-05-29T23:22:21.863424,15.08719729,.000086,53.1997,344.0877,69.1377,290.9707,0,U,54785,999,19296,-.11889E-2,-.19096E-3,0
STARLINK-5441,2022-175AF,2026-05-30T02:28:19.041888,15.08836782,.0001327,53.1989,38.3510,86.7451,273.3693,0,U,54787,999,19221,.63716E-5,-.187E-5,0
STARLINK-5399,2022-175AG,2026-05-30T01:08:11.499648,15.08844806,.000149,53.1986,23.7482,110.0705,250.0448,0,U,54788,999,19241,-.62049E-4,-.1276E-4,0
STARLINK-5446,2022-175AH,2026-05-29T18:45:58.868640,15.08836146,.0001195,53.1997,9.8415,78.7889,281.3237,0,U,54789,999,19258,.557606E-4,.6E-5,0
STARLINK-5445,2022-175AJ,2026-05-29T15:25:16.312224,15.08849332,.00013415,53.1984,25.4888,111.9696,248.1439,0,U,54790,999,19235,-.16783968E-3,-.2959E-4,0
STARLINK-5425,2022-175AK,2026-05-30T01:18:48.150144,15.08837552,.0001146,53.2006,23.7931,92.4808,267.6315,0,U,54791,999,19241,.14577E-4,-.56E-6,0
STARLINK-5431,2022-175AL,2026-05-30T03:53:07.637280,15.08801206,.0001422,53.1999,38.0046,93.0872,267.0282,0,U,54792,999,19222,-.21692E-3,-.3735E-4,0
STARLINK-5433,2022-175AM,2026-05-29T18:58:36.156000,15.08833099,.0001314,53.1990,15.0503,79.4560,280.6580,0,U,54793,999,19251,.56980536E-4,.619E-5,0
STARLINK-5436,2022-175AP,2026-05-29T15:30:34.636608,15.08833923,.00011633,53.2012,25.5133,88.0718,272.0407,0,U,54795,999,19235,-.14960389E-4,-.526E-5,0
STARLINK-5415,2022-175AQ,2026-05-29T15:19:56.821440,15.08846003,.0001422,53.2002,25.4607,118.3856,241.7280,0,U,54796,999,19235,.50839927E-4,.521E-5,0
STARLINK-5435,2022-175AR,2026-05-29T17:13:18.230304,15.08825752,.00012098,53.1995,40.2115,85.6990,274.4140,0,U,54797,999,19215,.16213834E-3,.2293E-4,0
STARLINK-5420,2022-175AS,2026-05-30T00:48:19.830240,15.08823246,.0001147,53.1953,13.7094,100.6450,259.4671,0,U,54798,999,19255,-.54704E-4,-.1158E-4,0
STARLINK-5421,2022-175AT,2026-05-30T01:14:50.061120,15.08857570,.0001009,53.1970,13.8275,108.4442,251.6660,0,U,54799,999,19255,.32982E-3,.4968E-4,0
STARLINK-5428,2022-175AU,2026-05-30T00:59:34.406016,15.08832566,.0001913,53.1978,28.6808,90.8784,269.2427,0,U,54800,999,19234,.89163E-4,.1131E-4,0
STARLINK-5429,2022-175AV,2026-05-30T02:07:05.403936,15.08841835,.000128,53.1977,38.2604,74.1061,286.0072,0,U,54801,999,19221,.16337E-4,-.28E-6,0
STARLINK-5426,2022-175AW,2026-05-29T22:46:14.966112,15.08017530,.00014758,53.2186,343.8385,86.9026,273.2134,0,U,54802,999,19296,.10996717E-4,-.115E-5,0
STARLINK-5430,2022-175AX,2026-05-30T02:23:00.397824,15.08838437,.0001243,53.2001,38.3146,82.0672,278.0461,0,U,54803,999,19221,.63905E-4,.729E-5,0
STARLINK-5422,2022-175AY,2026-05-29T16:23:30.621984,15.08838503,.00013148,53.1991,25.0370,100.3899,259.7242,0,U,54804,999,19236,.10399222E-4,-.122E-5,0
STARLINK-5417,2022-175AZ,2026-05-29T15:20:54.948768,15.08025734,.00012039,53.2179,25.4765,96.7009,263.4120,0,U,54805,999,19235,-.65094392E-4,-.1299E-4,0
STARLINK-5412,2022-175BA,2026-05-30T02:06:26.575776,15.08825748,.0001385,53.2000,23.2908,77.5851,282.5295,0,U,54806,999,19242,.14585E-3,.2033E-4,0
STARLINK-5410,2022-175BB,2026-05-30T00:36:21.714912,15.08829290,.0001365,53.1978,23.6135,93.6468,266.4680,0,U,54807,999,19241,.16777E-3,.2382E-4,0
STARLINK-5413,2022-175BC,2026-05-29T23:58:42.467232,15.08831615,.0001696,53.2003,9.2703,92.6264,267.4922,0,U,54808,999,19261,-.26614E-4,-.712E-5,0
STARLINK-5414,2022-175BD,2026-05-29T16:28:48.175680,15.08844158,.00012265,53.1993,25.0549,78.5489,281.5640,0,U,54809,999,19236,.59576179E-4,.66E-5,0
STARLINK-5408,2022-175BE,2026-05-30T00:55:35.198976,15.08841857,.0001378,53.2008,18.6900,98.0203,262.0946,0,U,54810,999,19248,.89592E-4,.1138E-4,0
STARLINK-5424,2022-175BF,2026-05-29T19:12:33.911136,15.08850884,.0001345,53.1981,20.0388,95.9698,264.1447,0,U,54811,999,19244,-.151E-3,-.2691E-4,0
GAOFEN-11 04,2022-176A,2026-05-30T04:30:30.847392,15.23632641,.000728,97.4206,283.5903,35.4922,324.6798,0,U,54818,999,19051,.33728E-3,.8017E-4,0
STARLINK-5382,2022-177A,2026-05-30T01:56:15.778752,15.27580026,.0001443,43.0070,36.1967,273.4569,86.6117,0,U,54820,999,18937,.45666E-4,.995E-5,0
